ONEWEB-0159             
1 48062U 21025W   24267.52507858  .00000235  00000+0  60759-3 0  9990
2 48062  87.8858  85.8898 0001684  81.2488 278.8832 13.13465547170681
ONEWEB-0164             
1 48063U 21025X   24267.50762116  .00000075  00000+0  16949-3 0  9993
2 48063  87.8851  85.9028 0001675  91.5704 268.5617 13.13469017170678
ONEWEB-0167             
1 48064U 21025Y   24266.92757093 -.00000160  00000+0 -47269-3 0  9993
2 48064  87.8853  86.0321 0001824  84.0979 276.0358 13.13470044170573
ONEWEB-0166             
1 48065U 21025Z   24266.79662967  .00000395  00000+0  10477-2 0  9992
2 48065  87.8848  86.0379 0001597  81.3908 278.7402 13.13467868170636
ONEWEB-0151             
1 48066U 21025AA  24266.79821786  .00000456  00000+0  12133-2 0  9998
2 48066  87.8850  86.0534 0001759  92.4541 267.6790 13.13467967170579
ONEWEB-0170             
1 48067U 21025AB  24266.72998658  .00000404  00000+0  10704-2 0  9990
2 48067  87.8851  86.0701 0001781 109.7435 250.3886 13.13469625170529
ONEWEB-0168             
1 48068U 21025AC  24266.94423281  .00000304  00000+0  79693-3 0  9992
2 48068  87.8853  85.9997 0001712  87.1008 273.0317 13.13470381170562
ONEWEB-0173             
1 48069U 21025AD  24267.46953566  .00000000  00000+0 -34131-4 0  9998
2 48069  87.8854  85.9043 0002133  87.4303 272.7070 13.13470439170875
